[{"CCSDS_OMM_VERS":"2.0","COMMENT":"GENERATED VIA SPACE-TRACK.ORG API","CREATION_DATE":"2004-08-15T23:35:47","ORIGINATOR":"18 SPCS","OBJECT_NAME":"SATURN 1B DEB","OBJECT_ID":"1966-059AF","CENTER_NAME":"EARTH","REF_FRAME":"TEME","TIME_SYSTEM":"UTC","MEAN_ELEMENT_THEORY":"SGP4","EPOCH":"1966-07-16T01:17:13.445375","MEAN_MOTION":"16.04973805","ECCENTRICITY":"0.00992370","INCLINATION":"31.8529","RA_OF_ASC_NODE":"289.0285","ARG_OF_PERICENTER":"177.2752","MEAN_ANOMALY":"182.8415","EPHEMERIS_TYPE":"0","CLASSIFICATION_TYPE":"U","NORAD_CAT_ID":"2343","ELEMENT_SET_NO":"999","REV_AT_EPOCH":"162","BSTAR":"0.00000000000000","MEAN_MOTION_DOT":"0.02139104","MEAN_MOTION_DDOT":"0.0114090000000","SEMIMAJOR_AXIS":"6638.808","PERIOD":"89.721","APOAPSIS":"326.555","PERIAPSIS":"194.792","OBJECT_TYPE":"DEBRIS","RCS_SIZE":null,"COUNTRY_CODE":null,"LAUNCH_DATE":null,"SITE":null,"DECAY_DATE":"1966-07-20","FILE":"33914","GP_ID":"8720568","TLE_LINE0":"0 SATURN 1B DEB","TLE_LINE1":"1 02343U 66059 AF 66197.05362784  .02139104 +11409-1 +00000-0 0  9998","TLE_LINE2":"2 02343 031.8529 289.0285 0099237 177.2752 182.8415 16.04973805001628"},{"CCSDS_OMM_VERS":"2.0","COMMENT":"GENERATED VIA SPACE-TRACK.ORG API","CREATION_DATE":"2004-08-15T23:35:47","ORIGINATOR":"18 SPCS","OBJECT_NAME":"SATURN 1B DEB","OBJECT_ID":"1966-059AK","CENTER_NAME":"EARTH","REF_FRAME":"TEME","TIME_SYSTEM":"UTC","MEAN_ELEMENT_THEORY":"SGP4","EPOCH":"1966-07-16T01:34:17.339807","MEAN_MOTION":"16.04547169","ECCENTRICITY":"0.00581530","INCLINATION":"31.9590","RA_OF_ASC_NODE":"289.5707","ARG_OF_PERICENTER":"311.8841","MEAN_ANOMALY":"47.6505","EPHEMERIS_TYPE":"0","CLASSIFICATION_TYPE":"U","NORAD_CAT_ID":"2347","ELEMENT_SET_NO":"999","REV_AT_EPOCH":"163","BSTAR":"0.00000000000000","MEAN_MOTION_DOT":"0.02414647","MEAN_MOTION_DDOT":"0.0144500000000","SEMIMAJOR_AXIS":"6639.985","PERIOD":"89.744","APOAPSIS":"300.463","PERIAPSIS":"223.236","OBJECT_TYPE":"DEBRIS","RCS_SIZE":null,"COUNTRY_CODE":null,"LAUNCH_DATE":null,"SITE":null,"DECAY_DATE":"1966-07-19","FILE":"33914","GP_ID":"8720572","TLE_LINE0":"0 SATURN 1B DEB","TLE_LINE1":"1 02347U 66059 AK 66197.06547847  .02414647 +14450-1 +00000-0 0  9995","TLE_LINE2":"2 02347 031.9590 289.5707 0058153 311.8841 047.6505 16.04547169001631"},{"CCSDS_OMM_VERS":"2.0","COMMENT":"GENERATED VIA SPACE-TRACK.ORG API","CREATION_DATE":"2004-08-15T23:35:47","ORIGINATOR":"18 SPCS","OBJECT_NAME":"SL-3 DEB","OBJECT_ID":"1966-064E","CENTER_NAME":"EARTH","REF_FRAME":"TEME","TIME_SYSTEM":"UTC","MEAN_ELEMENT_THEORY":"SGP4","EPOCH":"1966-07-16T06:49:40.530432","MEAN_MOTION":"16.18061220","ECCENTRICITY":"0.00973080","INCLINATION":"51.7491","RA_OF_ASC_NODE":"88.7818","ARG_OF_PERICENTER":"37.8528","MEAN_ANOMALY":"322.8810","EPHEMERIS_TYPE":"0","CLASSIFICATION_TYPE":"U","NORAD_CAT_ID":"2332","ELEMENT_SET_NO":"999","REV_AT_EPOCH":"30","BSTAR":"0.00000000000000","MEAN_MOTION_DOT":"0.01814927","MEAN_MOTION_DDOT":"0.0101220000000","SEMIMAJOR_AXIS":"6602.962","PERIOD":"88.995","APOAPSIS":"289.079","PERIAPSIS":"160.575","OBJECT_TYPE":"DEBRIS","RCS_SIZE":null,"COUNTRY_CODE":null,"LAUNCH_DATE":null,"SITE":null,"DECAY_DATE":"1966-07-19","FILE":"33914","GP_ID":"8720444","TLE_LINE0":"0 SL-3 DEB","TLE_LINE1":"1 02332U 66064  E 66197.28449688  .01814927 +10122-1 +00000-0 0  9999","TLE_LINE2":"2 02332 051.7491 088.7818 0097308 037.8528 322.8810 16.18061220000303"},{"CCSDS_OMM_VERS":"2.0","COMMENT":"GENERATED VIA SPACE-TRACK.ORG API","CREATION_DATE":"2004-08-15T23:35:47","ORIGINATOR":"18 SPCS","OBJECT_NAME":"SL-9 DEB","OBJECT_ID":"1966-060C","CENTER_NAME":"EARTH","REF_FRAME":"TEME","TIME_SYSTEM":"UTC","MEAN_ELEMENT_THEORY":"SGP4","EPOCH":"1966-07-18T06:32:51.991871","MEAN_MOTION":"16.29800857","ECCENTRICITY":"0.00107550","INCLINATION":"63.4151","RA_OF_ASC_NODE":"105.2211","ARG_OF_PERICENTER":"61.7813","MEAN_ANOMALY":"298.3586","EPHEMERIS_TYPE":"0","CLASSIFICATION_TYPE":"U","NORAD_CAT_ID":"2294","ELEMENT_SET_NO":"999","REV_AT_EPOCH":"186","BSTAR":"0.00000000000000","MEAN_MOTION_DOT":"0.14790692","MEAN_MOTION_DDOT":"2.7557000000000","SEMIMAJOR_AXIS":"6571.216","PERIOD":"88.354","APOAPSIS":"200.148","PERIAPSIS":"186.013","OBJECT_TYPE":"DEBRIS","RCS_SIZE":null,"COUNTRY_CODE":null,"LAUNCH_DATE":null,"SITE":null,"DECAY_DATE":"1966-07-19","FILE":"33914","GP_ID":"8720306","TLE_LINE0":"0 SL-9 DEB","TLE_LINE1":"1 02294U 66060  C 66199.27282398  .14790692 +2755701 +00000-0 0  9991","TLE_LINE2":"2 02294 063.4151 105.2211 0010755 061.7813 298.3586 16.29800857001867"},{"CCSDS_OMM_VERS":"2.0","COMMENT":"GENERATED VIA SPACE-TRACK.ORG API","CREATION_DATE":"2004-08-15T23:35:47","ORIGINATOR":"18 SPCS","OBJECT_NAME":"TITAN 3C TRANSTAGE DEB","OBJECT_ID":"1965-082GQ","CENTER_NAME":"EARTH","REF_FRAME":"TEME","TIME_SYSTEM":"UTC","MEAN_ELEMENT_THEORY":"SGP4","EPOCH":"1966-07-19T05:44:39.170399","MEAN_MOTION":"15.16203627","ECCENTRICITY":"0.01011450","INCLINATION":"31.9762","RA_OF_ASC_NODE":"225.3563","ARG_OF_PERICENTER":"66.3852","MEAN_ANOMALY":"294.6834","EPHEMERIS_TYPE":"0","CLASSIFICATION_TYPE":"U","NORAD_CAT_ID":"1930","ELEMENT_SET_NO":"999","REV_AT_EPOCH":"4076","BSTAR":"0.00000000000000","MEAN_MOTION_DOT":"0.00319931","MEAN_MOTION_DDOT":"0.0001267000000","SEMIMAJOR_AXIS":"6895.468","PERIOD":"94.974","APOAPSIS":"587.077","PERIAPSIS":"447.589","OBJECT_TYPE":"DEBRIS","RCS_SIZE":null,"COUNTRY_CODE":null,"LAUNCH_DATE":null,"SITE":null,"DECAY_DATE":"1966-09-12","FILE":"33914","GP_ID":"8718202","TLE_LINE0":"0 TITAN 3C TRANSTAGE DEB","TLE_LINE1":"1 01930U 65082 GQ 66200.23934225  .00319931 +12670-3 +00000-0 0  9993","TLE_LINE2":"2 01930 031.9762 225.3563 0101145 066.3852 294.6834 15.16203627040767"},{"CCSDS_OMM_VERS":"2.0","COMMENT":"GENERATED VIA SPACE-TRACK.ORG API","CREATION_DATE":"2004-08-15T23:35:47","ORIGINATOR":"18 SPCS","OBJECT_NAME":"SL-8 DEB","OBJECT_ID":"1965-020CZ","CENTER_NAME":"EARTH","REF_FRAME":"TEME","TIME_SYSTEM":"UTC","MEAN_ELEMENT_THEORY":"SGP4","EPOCH":"1966-07-19T07:37:40.660607","MEAN_MOTION":"16.03588543","ECCENTRICITY":"0.00762670","INCLINATION":"55.8369","RA_OF_ASC_NODE":"300.2249","ARG_OF_PERICENTER":"331.3124","MEAN_ANOMALY":"28.3491","EPHEMERIS_TYPE":"0","CLASSIFICATION_TYPE":"U","NORAD_CAT_ID":"1553","ELEMENT_SET_NO":"999","REV_AT_EPOCH":"7065","BSTAR":"0.00000000000000","MEAN_MOTION_DOT":"0.03222291","MEAN_MOTION_DDOT":"0.0254230000000","SEMIMAJOR_AXIS":"6642.631","PERIOD":"89.798","APOAPSIS":"315.157","PERIAPSIS":"213.835","OBJECT_TYPE":"DEBRIS","RCS_SIZE":null,"COUNTRY_CODE":null,"LAUNCH_DATE":null,"SITE":null,"DECAY_DATE":"1966-07-23","FILE":"33914","GP_ID":"8713554","TLE_LINE0":"0 SL-8 DEB","TLE_LINE1":"1 01553U 65020 CZ 66200.31783172  .03222291 +25423-1 +00000-0 0  9991","TLE_LINE2":"2 01553 055.8369 300.2249 0076267 331.3124 028.3491 16.03588543070655"},{"CCSDS_OMM_VERS":"2.0","COMMENT":"GENERATED VIA SPACE-TRACK.ORG API","CREATION_DATE":"2004-08-15T23:35:47","ORIGINATOR":"18 SPCS","OBJECT_NAME":"SATURN 1B DEB","OBJECT_ID":"1966-059AL","CENTER_NAME":"EARTH","REF_FRAME":"TEME","TIME_SYSTEM":"UTC","MEAN_ELEMENT_THEORY":"SGP4","EPOCH":"1966-07-20T07:57:56.621375","MEAN_MOTION":"16.11730112","ECCENTRICITY":"0.00535550","INCLINATION":"31.9900","RA_OF_ASC_NODE":"257.9450","ARG_OF_PERICENTER":"344.4501","MEAN_ANOMALY":"15.4452","EPHEMERIS_TYPE":"0","CLASSIFICATION_TYPE":"U","NORAD_CAT_ID":"2352","ELEMENT_SET_NO":"999","REV_AT_EPOCH":"232","BSTAR":"0.00000000000000","MEAN_MOTION_DOT":"0.00482697","MEAN_MOTION_DDOT":"0.0006425800000","SEMIMAJOR_AXIS":"6620.242","PERIOD":"89.344","APOAPSIS":"277.562","PERIAPSIS":"206.652","OBJECT_TYPE":"DEBRIS","RCS_SIZE":null,"COUNTRY_CODE":null,"LAUNCH_DATE":null,"SITE":null,"DECAY_DATE":"1966-07-22","FILE":"33914","GP_ID":"8720608","TLE_LINE0":"0 SATURN 1B DEB","TLE_LINE1":"1 02352U 66059 AL 66201.33190534  .00482697 +64258-3 +00000-0 0  9995","TLE_LINE2":"2 02352 031.9900 257.9450 0053555 344.4501 015.4452 16.11730112002323"},{"CCSDS_OMM_VERS":"2.0","COMMENT":"GENERATED VIA SPACE-TRACK.ORG API","CREATION_DATE":"2004-08-15T23:35:47","ORIGINATOR":"18 SPCS","OBJECT_NAME":"OPS 8411 DEB","OBJECT_ID":"1965-055C","CENTER_NAME":"EARTH","REF_FRAME":"TEME","TIME_SYSTEM":"UTC","MEAN_ELEMENT_THEORY":"SGP4","EPOCH":"1966-07-21T13:36:59.192064","MEAN_MOTION":"16.01626221","ECCENTRICITY":"0.00000000","INCLINATION":"70.1351","RA_OF_ASC_NODE":"198.5067","ARG_OF_PERICENTER":"359.6588","MEAN_ANOMALY":"0.3411","EPHEMERIS_TYPE":"0","CLASSIFICATION_TYPE":"U","NORAD_CAT_ID":"1455","ELEMENT_SET_NO":"999","REV_AT_EPOCH":"5673","BSTAR":"0.00000000000000","MEAN_MOTION_DOT":"0.02633003","MEAN_MOTION_DDOT":"0.0165200000000","SEMIMAJOR_AXIS":"6648.056","PERIOD":"89.908","APOAPSIS":"269.921","PERIAPSIS":"269.921","OBJECT_TYPE":"DEBRIS","RCS_SIZE":null,"COUNTRY_CODE":null,"LAUNCH_DATE":null,"SITE":null,"DECAY_DATE":"1966-07-24","FILE":"33914","GP_ID":"8711700","TLE_LINE0":"0 OPS 8411 DEB","TLE_LINE1":"1 01455U 65055  C 66202.56735176  .02633003 +16520-1 +00000-0 0  9994","TLE_LINE2":"2 01455 070.1351 198.5067 0000000 359.6588 000.3411 16.01626221056731"}]